OBJECT_NAME,OBJECT_ID,EPOCH,MEAN_MOTION,ECCENTRICITY,INCLINATION,RA_OF_ASC_NODE,ARG_OF_PERICENTER,MEAN_ANOMALY,EPHEMERIS_TYPE,CLASSIFICATION_TYPE,NORAD_CAT_ID,ELEMENT_SET_NO,REV_AT_EPOCH,BSTAR,MEAN_MOTION_DOT,MEAN_MOTION_DDOT
NETSAT-4,2020-068U,2026-07-14T00:21:39.475008,15.44730973,.0004593,97.8600,205.4290,197.7933,162.3154,0,U,46504,999,31991,.23526E-3,.10898E-3,0
NETSAT-3,2020-068V,2026-07-13T23:26:29.148000,15.43580856,.0003648,97.8647,203.5719,216.4788,143.6211,0,U,46505,999,31981,.24983E-3,.11134E-3,0
NETSAT-1,2020-068W,2026-07-13T23:51:18.080928,15.35228312,.0002412,97.8748,197.5991,270.6133,89.4833,0,U,46506,999,31941,.21328E-3,.7205E-4,0
NETSAT-2,2020-068X,2026-07-14T00:22:41.352096,15.47129324,.0001997,97.8610,205.4275,213.6658,146.4464,0,U,46507,999,31988,.28963E-3,.14595E-3,0
GREENCUBE (IO-117),2022-080E,2026-07-12T17:00:29.177856,6.42583319,.00090302,70.1415,289.3709,284.1311,75.8345,0,U,53109,999,9370,0,-.3E-7,0
SITRO-AIS 5 (KATYS),2023-091L,2026-07-14T03:36:34.432128,15.30051115,.0010767,97.5051,259.3151,16.1170,344.0411,0,U,57176,999,16846,.24734E-3,.7128E-4,0
SITRO-AIS 6 (CHIRKIN),2023-091AC,2026-07-14T04:37:06.851424,15.26426658,.0011279,97.5058,258.3312,20.1593,340.0088,0,U,57192,999,16840,.22862E-3,.5889E-4,0
SITRO-AIS 8 (ANOKHIN),2023-091AD,2026-07-14T04:25:49.808064,15.32841449,.0009605,97.5047,261.0505,11.8067,348.3398,0,U,57193,999,16858,.28038E-3,.8826E-4,0
SITRO-AIS 7 (FARTUSHNIY),2023-091AE,2026-07-14T04:49:45.416640,15.26101108,.0011248,97.5055,258.1508,21.3083,338.8622,0,U,57194,999,16839,.22166E-3,.5651E-4,0
SITRO-AIS 10 (BURDAEV),2023-091AK,2026-07-14T03:57:47.522304,15.39604115,.0004961,97.5075,266.3695,345.8013,14.3092,0,U,57199,999,16891,.30853E-3,.12074E-3,0
SITRO-AIS 9 (SHCHUKIN),2023-091AM,2026-07-14T03:14:50.879040,15.39089598,.000521,97.5073,266.0472,346.1181,13.9920,0,U,57201,999,16889,.33442E-3,.12877E-3,0
SITRO-AIS 12 (SMIRENNIY),2023-091AQ,2026-07-14T04:27:33.344640,15.39386341,.0004752,97.5086,266.5831,338.4922,21.6123,0,U,57204,999,16892,.31377E-3,.12193E-3,0
SITRO-AIS 11 (SHEFFER),2023-091AU,2026-07-14T04:35:55.233600,15.39829206,.0004664,97.5083,266.8529,338.0743,22.0302,0,U,57208,999,16894,.31711E-3,.12504E-3,0
SITRO-AIS 25,2024-039R,2026-07-14T04:11:47.498784,14.93639085,.0142705,95.3893,253.6379,233.1275,125.6800,0,U,59066,999,12875,.14976E-3,.1897E-4,0
SITRO-AIS 26,2024-039S,2026-07-14T04:19:07.324896,14.93431348,.0143043,95.3893,253.5334,233.7313,125.0628,0,U,59067,999,12874,.15068E-3,.1899E-4,0
SITRO-AIS 27,2024-039T,2026-07-14T05:01:46.466976,14.93855813,.0142098,95.3899,253.8381,232.1517,126.6783,0,U,59068,999,12877,.10948E-3,.1383E-4,0
SITRO-AIS 28,2024-039U,2026-07-14T04:28:25.716000,14.93889730,.0142012,95.3896,253.8709,232.0705,126.7617,0,U,59071,999,12877,.15017E-3,.1912E-4,0
GRBBETA,2024-128C,2026-07-14T03:56:15.768960,15.06804555,.0037194,61.9897,121.6054,140.4046,219.9774,0,U,60237,999,11033,.13324E-3,.1802E-4,0
OOV-CUBE (TUBSAT-30),2024-128F,2026-07-14T03:15:46.868832,15.02871344,.0041269,61.9937,131.5963,139.7934,220.6223,0,U,60240,999,11016,.91808E-4,.1043E-4,0
ROBUSTA-3A (MEDITERRANEE),2024-128J,2026-07-14T04:28:30.766080,15.11978177,.0038197,61.9865,112.7438,133.7055,226.7216,0,U,60243,999,11050,.25552E-3,.4254E-4,0
LASARSAT,2024-247Q,2026-07-12T23:54:51.800832,15.47948222,.00069769,44.9747,117.0092,149.4103,210.7196,0,U,62391,999,8731,.53150637E-3,.28123E-3,0
CROCUBE,2024-247T,2026-07-14T01:21:08.247744,15.50136188,.0007405,44.9721,107.9077,164.6385,195.4732,0,U,62394,999,8751,.46684E-3,.26647E-3,0
FORESAIL-1 PRIME,2025-276DS,2026-07-14T03:21:52.276032,15.18933286,.0002961,97.4194,267.9198,47.0520,313.0963,0,U,66778,999,3449,.1368E-3,.2789E-4,0
KNACKSAT-2,1998-067XZ,2026-07-14T04:06:43.667136,15.62331997,.000803,51.6265,158.5001,324.3037,35.7419,0,U,67683,999,2449,.39407E-3,.3521E-3,0
