NETSAT-4                
1 46504U 20068U   26195.01504022  .00010898  00000+0  23526-3 0  9998
2 46504  97.8600 205.4290 0004593 197.7933 162.3154 15.44730973319911
NETSAT-3                
1 46505U 20068V   26194.97672625  .00011134  00000+0  24983-3 0  9990
2 46505  97.8647 203.5719 0003648 216.4788 143.6211 15.43580856319812
NETSAT-1                
1 46506U 20068W   26194.99395927  .00007205  00000+0  21328-3 0  9994
2 46506  97.8748 197.5991 0002412 270.6133  89.4833 15.35228312319413
NETSAT-2                
1 46507U 20068X   26195.01575639  .00014595  00000+0  28963-3 0  9991
2 46507  97.8610 205.4275 0001997 213.6658 146.4464 15.47129324319883
GREENCUBE (IO-117)      
1 53109U 22080E   26193.70867104 -.00000003  00000+0  00000+0 0  9996
2 53109  70.1415 289.3709 0009030 284.1311  75.8345  6.42583319 93700
SITRO-AIS 5 (KATYS)     
1 57176U 23091L   26195.15039852  .00007128  00000+0  24734-3 0  9997
2 57176  97.5051 259.3151 0010767  16.1170 344.0411 15.30051115168462
SITRO-AIS 6 (CHIRKIN)   
1 57192U 23091AC  26195.19244041  .00005889  00000+0  22862-3 0  9999
2 57192  97.5058 258.3312 0011279  20.1593 340.0088 15.26426658168401
SITRO-AIS 8 (ANOKHIN)   
1 57193U 23091AD  26195.18460426  .00008826  00000+0  28038-3 0  9991
2 57193  97.5047 261.0505 0009605  11.8067 348.3398 15.32841449168588
SITRO-AIS 7 (FARTUSHNIY)
1 57194U 23091AE  26195.20122010  .00005651  00000+0  22166-3 0  9998
2 57194  97.5055 258.1508 0011248  21.3083 338.8622 15.26101108168395
SITRO-AIS 10 (BURDAEV)  
1 57199U 23091AK  26195.16513336  .00012074  00000+0  30853-3 0  9992
2 57199  97.5075 266.3695 0004961 345.8013  14.3092 15.39604115168916
SITRO-AIS 9 (SHCHUKIN)  
1 57201U 23091AM  26195.13531110  .00012877  00000+0  33442-3 0  9991
2 57201  97.5073 266.0472 0005210 346.1181  13.9920 15.39089598168890
SITRO-AIS 12 (SMIRENNIY)
1 57204U 23091AQ  26195.18580260  .00012193  00000+0  31377-3 0  9995
2 57204  97.5086 266.5831 0004752 338.4922  21.6123 15.39386341168929
SITRO-AIS 11 (SHEFFER)  
1 57208U 23091AU  26195.19161150  .00012504  00000+0  31711-3 0  9991
2 57208  97.5083 266.8529 0004664 338.0743  22.0302 15.39829206168944
SITRO-AIS 25            
1 59066U 24039R   26195.17485531  .00001897  00000+0  14976-3 0  9995
2 59066  95.3893 253.6379 0142705 233.1275 125.6800 14.93639085128755
SITRO-AIS 26            
1 59067U 24039S   26195.17994589  .00001899  00000+0  15068-3 0  9999
2 59067  95.3893 253.5334 0143043 233.7313 125.0628 14.93431348128744
SITRO-AIS 27            
1 59068U 24039T   26195.20956559  .00001383  00000+0  10948-3 0  9999
2 59068  95.3899 253.8381 0142098 232.1517 126.6783 14.93855813128773
SITRO-AIS 28            
1 59071U 24039U   26195.18640875  .00001912  00000+0  15017-3 0  9991
2 59071  95.3896 253.8709 0142012 232.0705 126.7617 14.93889730128774
GRBBETA                 
1 60237U 24128C   26195.16407140  .00001802  00000+0  13324-3 0  9997
2 60237  61.9897 121.6054 0037194 140.4046 219.9774 15.06804555110338
OOV-CUBE (TUBSAT-30)    
1 60240U 24128F   26195.13595913  .00001043  00000+0  91808-4 0  9995
2 60240  61.9937 131.5963 0041269 139.7934 220.6223 15.02871344110166
ROBUSTA-3A (MEDITERRAN*)
1 60243U 24128J   26195.18646720  .00004254  00000+0  25552-3 0  9995
2 60243  61.9865 112.7438 0038197 133.7055 226.7216 15.11978177110500
LASARSAT                
1 62391U 24247Q   26193.99643288  .00028123  00000+0  53151-3 0  9993
2 62391  44.9747 117.0092 0006976 149.4103 210.7196 15.47948222 87317
CROCUBE                 
1 62394U 24247T   26195.05634546  .00026647  00000+0  46684-3 0  9994
2 62394  44.9721 107.9077 0007405 164.6385 195.4732 15.50136188 87513
FORESAIL-1 PRIME        
1 66778U 25276DS  26195.14018838  .00002789  00000+0  13680-3 0  9998
2 66778  97.4194 267.9198 0002961  47.0520 313.0963 15.18933286 34499
KNACKSAT-2              
1 67683U 98067XZ  26195.17133874  .00035210  00000+0  39407-3 0  9993
2 67683  51.6265 158.5001 0008030 324.3037  35.7419 15.62331997 24494
